NORAD_CAT_ID,OBJECT_NAME,OBJECT_TYPE,EPOCH,MEAN_MOTION,ECCENTRICITY,INCLINATION,RA_OF_ASC_NODE,ARG_OF_PERICENTER,MEAN_ANOMALY,BSTAR,MEAN_MOTION_DOT,MEAN_MOTION_DDOT,TLE_LINE0,TLE_LINE1,TLE_LINE2,SEMIMAJOR_AXIS,PERIOD,APOGEE,PERIGEE,DECAYED
53937.0,STARLINK-4765,PAYLOAD,2023-09-22 23:48:22,15.08854847,0.0001385,53.2198,8.4688,84.9739,275.1411,0.0012613,0.00019851,0.0,0 STARLINK-4765,1 53937U 22119BD  23265.99192522  .00019851  00000-0  12613-2 0  9998,2 53937  53.2198   8.4688 0001385  84.9739 275.1411 15.08854847 56011,6917.835,95.437,540.658,538.742,0.0
53937.0,STARLINK-4765,PAYLOAD,2023-09-23 12:31:27,15.08846257,0.0001511,53.2191,6.0905,95.0488,265.0677,0.00033271,5.012e-05,0.0,0 STARLINK-4765,1 53937U 22119BD  23266.52184440  .00005012  00000-0  33271-3 0  9996,2 53937  53.2191   6.0905 0001511  95.0488 265.0677 15.08846257 56091,6917.861,95.437,540.772,538.681,0.0
53937.0,STARLINK-4765,PAYLOAD,2023-09-23 14:06:50,15.08857008,0.0001118,53.2179,5.789,85.4963,274.6157,0.00061659,9.543e-05,0.0,0 STARLINK-4765,1 53937U 22119BD  23266.58808126  .00009543  00000-0  61659-3 0  9990,2 53937  53.2179   5.7890 0001118  85.4963 274.6157 15.08857008 56107,6917.828,95.436,540.467,538.92,0.0
53937.0,STARLINK-4765,PAYLOAD,2023-09-24 13:57:35,15.0883085,0.0001208,53.217,1.3337,88.0467,272.0663,0.00090251,0.00014101,0.0,0 STARLINK-4765,1 53937U 22119BD  23267.58166266  .00014101  00000-0  90251-3 0  9999,2 53937  53.2170   1.3337 0001208  88.0467 272.0663 15.08830850 56676,6917.908,95.438,540.609,538.938,0.0
53937.0,STARLINK-4765,PAYLOAD,2023-09-25 05:51:28,15.0884624,0.0001458,53.2181,358.3573,104.1609,255.9545,0.0010905,0.00017113,0.0,0 STARLINK-4765,1 53937U 22119BD  23268.24407787  .00017113  00000-0  10905-2 0  9992,2 53937  53.2181 358.3573 0001458 104.1609 255.9545 15.08846240 56354,6917.861,95.437,540.735,538.718,0.0
53937.0,STARLINK-4765,PAYLOAD,2023-09-25 12:13:01,15.08822898,0.0001491,53.2173,357.1665,104.0534,256.0624,0.0020134,0.00031886,0.0,0 STARLINK-4765,1 53937U 22119BD  23268.50904924  .00031886  00000-0  20134-2 0  9994,2 53937  53.2173 357.1665 0001491 104.0534 256.0624 15.08822898 56811,6917.933,95.439,540.829,538.766,0.0
53937.0,STARLINK-4765,PAYLOAD,2023-09-25 13:48:25,15.08827286,0.0001501,53.2175,356.8697,100.7606,259.3555,0.0020529,0.00032524,0.0,0 STARLINK-4765,1 53937U 22119BD  23268.57528994  .00032524  00000-0  20529-2 0  9998,2 53937  53.2175 356.8697 0001501 100.7606 259.3555 15.08827286 56409,6917.919,95.438,540.823,538.746,0.0
53937.0,STARLINK-4765,PAYLOAD,2023-09-26 10:28:27,15.08830609,0.0002126,53.2179,353.0096,66.656,293.4656,0.0007711,0.00012002,0.0,0 STARLINK-4765,1 53937U 22119BD  23269.43642415  .00012002  00000-0  77110-3 0  9997,2 53937  53.2179 353.0096 0002126  66.6560 293.4656 15.08830609 56536,6917.909,95.438,541.245,538.303,0.0
53937.0,STARLINK-4765,PAYLOAD,2023-09-26 12:03:50,15.08835508,0.0002156,53.2178,352.7116,69.1016,291.0207,0.0014026,0.00022102,0.0,0 STARLINK-4765,1 53937U 22119BD  23269.50266504  .00022102  00000-0  14026-2 0  9994,2 53937  53.2178 352.7116 0002156  69.1016 291.0207 15.08835508 56967,6917.894,95.438,541.251,538.268,0.0
53937.0,STARLINK-4765,PAYLOAD,2023-09-27 08:43:50,15.08858185,0.0001938,53.2187,348.8424,102.789,257.3319,0.00070363,0.00010934,0.0,0 STARLINK-4765,1 53937U 22119BD  23270.36377496  .00010934  00000-0  70363-3 0  9990,2 53937  53.2187 348.8424 0001938 102.7890 257.3319 15.08858185 56679,6917.825,95.436,541.03,538.349,0.0
53937.0,STARLINK-4765,PAYLOAD,2023-09-27 11:54:36,15.08862875,0.000163,53.2182,348.2482,87.7487,272.3692,0.00079606,0.00012412,0.0,0 STARLINK-4765,1 53937U 22119BD  23270.49625352  .00012412  00000-0  79606-3 0  9993,2 53937  53.2182 348.2482 0001630  87.7487 272.3692 15.08862875 57117,6917.81,95.436,540.803,538.548,0.0
53937.0,STARLINK-4765,PAYLOAD,2023-09-28 10:10:00,15.08840395,0.0001562,53.2182,344.0839,90.4415,269.6756,-4.9735e-05,-1.079e-05,0.0,0 STARLINK-4765,1 53937U 22119BD  23271.42361522 -.00001079  00000-0 -49735-4 0  9993,2 53937  53.2182 344.0839 0001562  90.4415 269.6756 15.08840395 56834,6917.879,95.438,540.825,538.664,0.0
53937.0,STARLINK-4765,PAYLOAD,2023-09-29 11:36:10,15.0884385,0.0001621,53.2186,339.3269,94.8216,265.2961,3.5363e-05,2.75e-06,0.0,0 STARLINK-4765,1 53937U 22119BD  23272.48345629  .00000275  00000-0  35363-4 0  9997,2 53937  53.2186 339.3269 0001621  94.8216 265.2961 15.08843850 57419,6917.869,95.437,540.855,538.612,0.0
53937.0,STARLINK-4765,PAYLOAD,2023-09-30 11:26:57,15.08857616,0.0001568,53.218,334.8705,96.9554,263.1617,0.00041519,6.329e-05,0.0,0 STARLINK-4765,1 53937U 22119BD  23273.47704885  .00006329  00000-0  41519-3 0  9995,2 53937  53.2180 334.8705 0001568  96.9554 263.1617 15.08857616 57146,6917.827,95.436,540.776,538.607,0.0
53937.0,STARLINK-4765,PAYLOAD,2023-09-30 22:34:38,15.08852397,0.0001751,53.2171,332.7868,96.8913,263.2278,0.00015711,2.214e-05,0.0,0 STARLINK-4765,1 53937U 22119BD  23273.94072706  .00002214  00000-0  15711-3 0  9991,2 53937  53.2171 332.7868 0001751  96.8913 263.2278 15.08852397 57218,6917.842,95.437,540.919,538.496,0.0
53937.0,STARLINK-4765,PAYLOAD,2023-10-01 12:53:06,15.0885251,0.0001658,53.2181,330.1063,91.4464,268.6718,7.3602e-05,8.84e-06,0.0,0 STARLINK-4765,1 53937U 22119BD  23274.53688413  .00000884  00000-0  73602-4 0  9990,2 53937  53.2181 330.1063 0001658  91.4464 268.6718 15.08852510 57727,6917.842,95.437,540.854,538.56,0.0
53937.0,STARLINK-4765,PAYLOAD,2023-10-01 20:50:03,15.0884095,0.0001687,53.2174,328.6237,83.9574,276.161,-5.8842e-05,-1.224e-05,0.0,0 STARLINK-4765,1 53937U 22119BD  23274.86809058 -.00001224  00000-0 -58842-4 0  9996,2 53937  53.2174 328.6237 0001687  83.9574 276.1610 15.08840950 57779,6917.877,95.437,540.91,538.575,0.0
53937.0,STARLINK-4765,PAYLOAD,2023-10-02 03:11:35,15.08842653,0.0002621,53.2171,327.4327,81.0506,279.0783,-0.00016336,-2.888e-05,0.0,0 STARLINK-4765,1 53937U 22119BD  23275.13305337 -.00002888  00000-0 -16336-3 0  9996,2 53937  53.2171 327.4327 0002621  81.0506 279.0783 15.08842653 57399,6917.872,95.437,541.55,537.924,0.0
53937.0,STARLINK-4765,PAYLOAD,2023-10-02 09:33:08,15.08828522,0.0001751,53.2173,326.2434,85.0448,275.0743,-0.0003071,-5.171e-05,0.0,0 STARLINK-4765,1 53937U 22119BD  23275.39801969 -.00005171  00000-0 -30710-3 0  9996,2 53937  53.2173 326.2434 0001751  85.0448 275.0743 15.08828522 57435,6917.915,95.438,540.992,538.569,0.0
53937.0,STARLINK-4765,PAYLOAD,2023-10-02 20:40:50,15.08841223,0.0001741,53.2174,324.1616,84.5527,275.5664,-2.5316e-05,-6.91e-06,0.0,0 STARLINK-4765,1 53937U 22119BD  23275.86169614 -.00000691  00000-0 -25316-4 0  9991,2 53937  53.2174 324.1616 0001741  84.5527 275.5664 15.08841223 57920,6917.877,95.437,540.946,538.537,0.0
53937.0,STARLINK-4765,PAYLOAD,2023-10-03 03:02:23,15.08840846,0.0001731,53.216,322.9717,85.6871,274.4319,0.00035851,5.422e-05,0.0,0 STARLINK-4765,1 53937U 22119BD  23276.12665997  .00005422  00000-0  35851-3 0  9995,2 53937  53.2160 322.9717 0001731  85.6871 274.4319 15.08840846 57549,6917.878,95.438,540.94,538.545,0.0
53937.0,STARLINK-4765,PAYLOAD,2023-10-03 09:23:55,15.08853649,0.0001633,53.2157,321.7822,85.1829,274.935,0.0010361,0.00016246,0.0,0 STARLINK-4765,1 53937U 22119BD  23276.39161971  .00016246  00000-0  10361-2 0  9991,2 53937  53.2157 321.7822 0001633  85.1829 274.9350 15.08853649 58005,6917.839,95.437,540.833,538.574,0.0
53937.0,STARLINK-4765,PAYLOAD,2023-10-04 09:14:42,15.0884849,0.000176,53.2155,317.3203,93.0229,267.0964,0.00025567,3.784e-05,0.0,0 STARLINK-4765,1 53937U 22119BD  23277.38521757  .00003784  00000-0  25567-3 0  9991,2 53937  53.2155 317.3203 0001760  93.0229 267.0964 15.08848490 57731,6917.854,95.437,540.937,538.502,0.0
53937.0,STARLINK-4765,PAYLOAD,2023-10-05 09:05:29,15.08845817,0.0001786,53.2174,312.8621,93.8851,266.2346,3.09e-05,2.04e-06,0.0,0 STARLINK-4765,1 53937U 22119BD  23278.37881843  .00000204  00000-0  30900-4 0  9998,2 53937  53.2174 312.8621 0001786  93.8851 266.2346 15.08845817 57884,6917.863,95.437,540.963,538.492,0.0
53937.0,STARLINK-4765,PAYLOAD,2023-10-06 02:34:44,15.08839323,0.0002264,53.2179,309.5904,102.1903,257.9343,5.4229e-05,5.75e-06,0.0,0 STARLINK-4765,1 53937U 22119BD  23279.10746294  .00000575  00000-0  54229-4 0  9991,2 53937  53.2179 309.5904 0002264 102.1903 257.9343 15.08839323 57991,6917.882,95.438,541.314,538.181,0.0
53937.0,STARLINK-4765,PAYLOAD,2023-10-06 12:07:03,15.08848386,0.0001753,53.2163,307.8051,89.5456,270.5737,0.00018573,2.67e-05,0.0,0 STARLINK-4765,1 53937U 22119BD  23279.50489759  .00002670  00000-0  18573-3 0  9994,2 53937  53.2163 307.8051 0001753  89.5456 270.5737 15.08848386 58472,6917.855,95.437,540.932,538.507,0.0
53937.0,STARLINK-4765,PAYLOAD,2023-10-06 18:28:35,15.08841043,0.0001671,53.216,306.613,90.9202,269.1981,0.00011051,1.471e-05,0.0,0 STARLINK-4765,1 53937U 22119BD  23279.76986104  .00001471  00000-0  11051-3 0  9990,2 53937  53.2160 306.6130 0001671  90.9202 269.1981 15.08841043 58511,6917.877,95.437,540.898,538.586,0.0
53937.0,STARLINK-4765,PAYLOAD,2023-10-07 02:25:32,15.08834317,0.0001644,53.2174,305.1303,91.7651,268.353,2.4416e-05,1.01e-06,0.0,0 STARLINK-4765,1 53937U 22119BD  23280.10106597  .00000101  00000-0  24416-4 0  9999,2 53937  53.2174 305.1303 0001644  91.7651 268.3530 15.08834317 58145,6917.898,95.438,540.9,538.625,0.0
53937.0,STARLINK-4765,PAYLOAD,2023-10-07 08:47:04,15.08844058,0.0001967,53.217,303.9392,99.1006,261.0209,0.00015566,2.19e-05,0.0,0 STARLINK-4765,1 53937U 22119BD  23280.36602087  .00002190  00000-0  15566-3 0  9997,2 53937  53.2170 303.9392 0001967  99.1006 261.0209 15.08844058 58189,6917.868,95.437,541.094,538.372,0.0
53937.0,STARLINK-4765,PAYLOAD,2023-10-07 11:57:50,15.08846613,0.0001996,53.2171,303.3435,100.9834,259.1383,0.00018391,2.641e-05,0.0,0 STARLINK-4765,1 53937U 22119BD  23280.49849922  .00002641  00000-0  18391-3 0  9992,2 53937  53.2171 303.3435 0001996 100.9834 259.1383 15.08846613 58623,6917.86,95.437,541.106,538.344,0.0
